CCSDS_OMM_VERS = 2.0
CREATION_DATE  = 
ORIGINATOR     = 

OBJECT_NAME    = H-2A R/B
OBJECT_ID      = 2006-002B
CENTER_NAME    = EARTH
REF_FRAME      = TEME
TIME_SYSTEM    = UTC
MEAN_ELEMENT_THEORY = SGP/SGP4

EPOCH          = 2026-03-26T21:29:27.798432
MEAN_MOTION    = 15.16789731
ECCENTRICITY   = .0052383
INCLINATION    = 98.2441
RA_OF_ASC_NODE = 234.4069
ARG_OF_PERICENTER = 182.2036
MEAN_ANOMALY   = 177.8972

EPHEMERIS_TYPE = 0
CLASSIFICATION_TYPE = U
NORAD_CAT_ID   = 28932
ELEMENT_SET_NO = 999
REV_AT_EPOCH   = 9704
BSTAR          = .60919E-3
MEAN_MOTION_DOT = .12325E-3
MEAN_MOTION_DDOT = 0

CCSDS_OMM_VERS = 2.0
CREATION_DATE  = 
ORIGINATOR     = 

OBJECT_NAME    = RESURS-DK 1
OBJECT_ID      = 2006-021A
CENTER_NAME    = EARTH
REF_FRAME      = TEME
TIME_SYSTEM    = UTC
MEAN_ELEMENT_THEORY = SGP/SGP4

EPOCH          = 2026-03-26T09:30:51.943392
MEAN_MOTION    = 15.12849732
ECCENTRICITY   = .0000933
INCLINATION    = 69.9337
RA_OF_ASC_NODE = 193.8061
ARG_OF_PERICENTER = 66.6761
MEAN_ANOMALY   = 293.4503

EPHEMERIS_TYPE = 0
CLASSIFICATION_TYPE = U
NORAD_CAT_ID   = 29228
ELEMENT_SET_NO = 999
REV_AT_EPOCH   = 9005
BSTAR          = .12896E-3
MEAN_MOTION_DOT = .2165E-4
MEAN_MOTION_DDOT = 0

CCSDS_OMM_VERS = 2.0
CREATION_DATE  = 
ORIGINATOR     = 

OBJECT_NAME    = CZ-4B R/B
OBJECT_ID      = 2006-046C
CENTER_NAME    = EARTH
REF_FRAME      = TEME
TIME_SYSTEM    = UTC
MEAN_ELEMENT_THEORY = SGP/SGP4

EPOCH          = 2026-03-26T13:28:31.035648
MEAN_MOTION    = 15.17068958
ECCENTRICITY   = .0032516
INCLINATION    = 97.5562
RA_OF_ASC_NODE = 130.4242
ARG_OF_PERICENTER = 206.5182
MEAN_ANOMALY   = 153.4389

EPHEMERIS_TYPE = 0
CLASSIFICATION_TYPE = U
NORAD_CAT_ID   = 29507
ELEMENT_SET_NO = 999
REV_AT_EPOCH   = 6260
BSTAR          = .19964E-3
MEAN_MOTION_DOT = .3935E-4
MEAN_MOTION_DDOT = 0

CCSDS_OMM_VERS = 2.0
CREATION_DATE  = 
ORIGINATOR     = 

OBJECT_NAME    = CZ-2C R/B
OBJECT_ID      = 2007-010B
CENTER_NAME    = EARTH
REF_FRAME      = TEME
TIME_SYSTEM    = UTC
MEAN_ELEMENT_THEORY = SGP/SGP4

EPOCH          = 2026-03-26T21:58:40.906272
MEAN_MOTION    = 14.20252287
ECCENTRICITY   = .0057975
INCLINATION    = 98.3997
RA_OF_ASC_NODE = 198.3327
ARG_OF_PERICENTER = 243.5437
MEAN_ANOMALY   = 115.9785

EPHEMERIS_TYPE = 0
CLASSIFICATION_TYPE = U
NORAD_CAT_ID   = 31114
ELEMENT_SET_NO = 999
REV_AT_EPOCH   = 98216
BSTAR          = .84826E-4
MEAN_MOTION_DOT = .143E-5
MEAN_MOTION_DDOT = 0

CCSDS_OMM_VERS = 2.0
CREATION_DATE  = 
ORIGINATOR     = 

OBJECT_NAME    = COSMO-SKYMED 1
OBJECT_ID      = 2007-023A
CENTER_NAME    = EARTH
REF_FRAME      = TEME
TIME_SYSTEM    = UTC
MEAN_ELEMENT_THEORY = SGP/SGP4

EPOCH          = 2026-03-26T20:20:09.439872
MEAN_MOTION    = 14.96656583
ECCENTRICITY   = .0000939
INCLINATION    = 97.8879
RA_OF_ASC_NODE = 277.0192
ARG_OF_PERICENTER = 94.1794
MEAN_ANOMALY   = 265.9534

EPHEMERIS_TYPE = 0
CLASSIFICATION_TYPE = U
NORAD_CAT_ID   = 31598
ELEMENT_SET_NO = 999
REV_AT_EPOCH   = 1747
BSTAR          = .28482E-3
MEAN_MOTION_DOT = .3189E-4
MEAN_MOTION_DDOT = 0

CCSDS_OMM_VERS = 2.0
CREATION_DATE  = 
ORIGINATOR     = 

OBJECT_NAME    = COSMOS 2428
OBJECT_ID      = 2007-029A
CENTER_NAME    = EARTH
REF_FRAME      = TEME
TIME_SYSTEM    = UTC
MEAN_ELEMENT_THEORY = SGP/SGP4

EPOCH          = 2026-03-26T14:18:41.391360
MEAN_MOTION    = 14.12948167
ECCENTRICITY   = .0009675
INCLINATION    = 70.9438
RA_OF_ASC_NODE = 167.8602
ARG_OF_PERICENTER = 259.7433
MEAN_ANOMALY   = 100.2597

EPHEMERIS_TYPE = 0
CLASSIFICATION_TYPE = U
NORAD_CAT_ID   = 31792
ELEMENT_SET_NO = 999
REV_AT_EPOCH   = 96648
BSTAR          = .44665E-5
MEAN_MOTION_DOT = -.4E-6
MEAN_MOTION_DDOT = 0

CCSDS_OMM_VERS = 2.0
CREATION_DATE  = 
ORIGINATOR     = 

OBJECT_NAME    = SL-16 R/B
OBJECT_ID      = 2007-029B
CENTER_NAME    = EARTH
REF_FRAME      = TEME
TIME_SYSTEM    = UTC
MEAN_ELEMENT_THEORY = SGP/SGP4

EPOCH          = 2026-03-26T16:30:34.164288
MEAN_MOTION    = 14.14842984
ECCENTRICITY   = .0002619
INCLINATION    = 70.9751
RA_OF_ASC_NODE = 136.6550
ARG_OF_PERICENTER = 277.7542
MEAN_ANOMALY   = 218.1714

EPHEMERIS_TYPE = 0
CLASSIFICATION_TYPE = U
NORAD_CAT_ID   = 31793
ELEMENT_SET_NO = 999
REV_AT_EPOCH   = 96777
BSTAR          = .80669E-4
MEAN_MOTION_DOT = .108E-5
MEAN_MOTION_DDOT = 0

CCSDS_OMM_VERS = 2.0
CREATION_DATE  = 
ORIGINATOR     = 

OBJECT_NAME    = KORONAS-FOTON
OBJECT_ID      = 2009-003A
CENTER_NAME    = EARTH
REF_FRAME      = TEME
TIME_SYSTEM    = UTC
MEAN_ELEMENT_THEORY = SGP/SGP4

EPOCH          = 2026-03-26T21:05:48.655104
MEAN_MOTION    = 15.43767406
ECCENTRICITY   = .0011797
INCLINATION    = 82.4277
RA_OF_ASC_NODE = 257.9980
ARG_OF_PERICENTER = 94.0368
MEAN_ANOMALY   = 266.2228

EPHEMERIS_TYPE = 0
CLASSIFICATION_TYPE = U
NORAD_CAT_ID   = 33504
ELEMENT_SET_NO = 999
REV_AT_EPOCH   = 94839
BSTAR          = .30251E-3
MEAN_MOTION_DOT = .13753E-3
MEAN_MOTION_DDOT = 0

CCSDS_OMM_VERS = 2.0
CREATION_DATE  = 
ORIGINATOR     = 

OBJECT_NAME    = CZ-2C R/B
OBJECT_ID      = 2011-030B
CENTER_NAME    = EARTH
REF_FRAME      = TEME
TIME_SYSTEM    = UTC
MEAN_ELEMENT_THEORY = SGP/SGP4

EPOCH          = 2026-03-26T21:44:49.690752
MEAN_MOTION    = 14.81281450
ECCENTRICITY   = .0051178
INCLINATION    = 97.8572
RA_OF_ASC_NODE = 42.8285
ARG_OF_PERICENTER = 295.1870
MEAN_ANOMALY   = 131.2645

EPHEMERIS_TYPE = 0
CLASSIFICATION_TYPE = U
NORAD_CAT_ID   = 37731
ELEMENT_SET_NO = 999
REV_AT_EPOCH   = 79264
BSTAR          = .19787E-3
MEAN_MOTION_DOT = .1522E-4
MEAN_MOTION_DDOT = 0

CCSDS_OMM_VERS = 2.0
CREATION_DATE  = 
ORIGINATOR     = 

OBJECT_NAME    = H-2A R/B
OBJECT_ID      = 2012-025E
CENTER_NAME    = EARTH
REF_FRAME      = TEME
TIME_SYSTEM    = UTC
MEAN_ELEMENT_THEORY = SGP/SGP4

EPOCH          = 2026-03-26T17:25:49.680480
MEAN_MOTION    = 14.95284150
ECCENTRICITY   = .0042705
INCLINATION    = 98.4760
RA_OF_ASC_NODE = 54.1408
ARG_OF_PERICENTER = 256.5869
MEAN_ANOMALY   = 103.0588

EPHEMERIS_TYPE = 0
CLASSIFICATION_TYPE = U
NORAD_CAT_ID   = 38341
ELEMENT_SET_NO = 999
REV_AT_EPOCH   = 75076
BSTAR          = .31579E-3
MEAN_MOTION_DOT = .3471E-4
MEAN_MOTION_DDOT = 0

CCSDS_OMM_VERS = 2.0
CREATION_DATE  = 
ORIGINATOR     = 

OBJECT_NAME    = SHIJIAN-16 (SJ-16)
OBJECT_ID      = 2013-057A
CENTER_NAME    = EARTH
REF_FRAME      = TEME
TIME_SYSTEM    = UTC
MEAN_ELEMENT_THEORY = SGP/SGP4

EPOCH          = 2026-03-26T22:11:29.403168
MEAN_MOTION    = 14.92412923
ECCENTRICITY   = .0015262
INCLINATION    = 74.9723
RA_OF_ASC_NODE = 152.4626
ARG_OF_PERICENTER = 67.8050
MEAN_ANOMALY   = 292.4756

EPHEMERIS_TYPE = 0
CLASSIFICATION_TYPE = U
NORAD_CAT_ID   = 39358
ELEMENT_SET_NO = 999
REV_AT_EPOCH   = 67407
BSTAR          = .13239E-3
MEAN_MOTION_DOT = .133E-4
MEAN_MOTION_DDOT = 0

CCSDS_OMM_VERS = 2.0
CREATION_DATE  = 
ORIGINATOR     = 

OBJECT_NAME    = SL-4 R/B
OBJECT_ID      = 2014-021B
CENTER_NAME    = EARTH
REF_FRAME      = TEME
TIME_SYSTEM    = UTC
MEAN_ELEMENT_THEORY = SGP/SGP4

EPOCH          = 2026-03-25T19:01:41.820096
MEAN_MOTION    = 15.39717175
ECCENTRICITY   = .00959711
INCLINATION    = 51.6053
RA_OF_ASC_NODE = 258.6863
ARG_OF_PERICENTER = 161.6166
MEAN_ANOMALY   = 198.8326

EPHEMERIS_TYPE = 0
CLASSIFICATION_TYPE = U
NORAD_CAT_ID   = 39679
ELEMENT_SET_NO = 999
REV_AT_EPOCH   = 65875
BSTAR          = .37834437E-3
MEAN_MOTION_DOT = .17461E-3
MEAN_MOTION_DDOT = 0

