H-2A R/B                
1 28932U 06002B   26085.89546063  .00012325  00000+0  60919-3 0  9994
2 28932  98.2441 234.4069 0052383 182.2036 177.8972 15.16789731 97044
RESURS-DK 1             
1 29228U 06021A   26085.39643453  .00002165  00000+0  12896-3 0  9992
2 29228  69.9337 193.8061 0000933  66.6761 293.4503 15.12849732 90059
CZ-4B R/B               
1 29507U 06046C   26085.56147032  .00003935  00000+0  19964-3 0  9999
2 29507  97.5562 130.4242 0032516 206.5182 153.4389 15.17068958 62603
CZ-2C R/B               
1 31114U 07010B   26085.91575123  .00000143  00000+0  84826-4 0  9991
2 31114  98.3997 198.3327 0057975 243.5437 115.9785 14.20252287982166
COSMO-SKYMED 1          
1 31598U 07023A   26085.84733148  .00003189  00000+0  28482-3 0  9994
2 31598  97.8879 277.0192 0000939  94.1794 265.9534 14.96656583 17475
COSMOS 2428             
1 31792U 07029A   26085.59631240 -.00000040  00000+0  44665-5 0  9995
2 31792  70.9438 167.8602 0009675 259.7433 100.2597 14.12948167966485
SL-16 R/B               
1 31793U 07029B   26085.68789542  .00000108  00000+0  80669-4 0  9992
2 31793  70.9751 136.6550 0002619 277.7542 218.1714 14.14842984967777
KORONAS-FOTON           
1 33504U 09003A   26085.87903536  .00013753  00000+0  30251-3 0  9991
2 33504  82.4277 257.9980 0011797  94.0368 266.2228 15.43767406948396
CZ-2C R/B               
1 37731U 11030B   26085.90613068  .00001522  00000+0  19787-3 0  9994
2 37731  97.8572  42.8285 0051178 295.1870 131.2645 14.81281450792648
H-2A R/B                
1 38341U 12025E   26085.72626945  .00003471  00000+0  31579-3 0  9993
2 38341  98.4760  54.1408 0042705 256.5869 103.0588 14.95284150750765
SHIJIAN-16 (SJ-16)      
1 39358U 13057A   26085.92464587  .00001330  00000+0  13239-3 0  9997
2 39358  74.9723 152.4626 0015262  67.8050 292.4756 14.92412923674076
SL-4 R/B                
1 39679U 14021B   26084.79284514  .00017461  00000+0  37834-3 0  9998
2 39679  51.6053 258.6863 0095971 161.6166 198.8326 15.39717175658756
